[{"OBJECT_NAME":"GHGSAT-C3","OBJECT_ID":"2022-057F","EPOCH":"2026-03-09T22:30:13.234752","MEAN_MOTION":15.32943835,"ECCENTRICITY":0.00073198,"INCLINATION":97.6431,"RA_OF_ASC_NODE":211.0668,"ARG_OF_PERICENTER":112.4588,"MEAN_ANOMALY":247.7429,"EPHEMERIS_TYPE":0,"CLASSIFICATION_TYPE":"U","NORAD_CAT_ID":52737,"ELEMENT_SET_NO":999,"REV_AT_EPOCH":21032,"BSTAR":0.00031249517,"MEAN_MOTION_DOT":9.871e-5,"MEAN_MOTION_DDOT":0},{"OBJECT_NAME":"STARLINK-33797","OBJECT_ID":"2025-069R","EPOCH":"2026-03-09T11:16:23.053728","MEAN_MOTION":15.30232262,"ECCENTRICITY":0.00013127,"INCLINATION":53.1596,"RA_OF_ASC_NODE":143.3135,"ARG_OF_PERICENTER":99.1189,"MEAN_ANOMALY":260.996,"EPHEMERIS_TYPE":0,"CLASSIFICATION_TYPE":"U","NORAD_CAT_ID":63448,"ELEMENT_SET_NO":999,"REV_AT_EPOCH":5332,"BSTAR":0.001132807,"MEAN_MOTION_DOT":0.00033376,"MEAN_MOTION_DDOT":0}]
